STARLINK-2698           
1 48458U 21040AG  25169.51526982 -.00000496  00000+0 -14396-4 0  9994
2 48458  53.0563 292.6336 0001384 101.3841 258.7304 15.06390118227451
STARLINK-2579           
1 48459U 21040AH  25169.50791715 -.00002354  00000+0 -13917-3 0  9994
2 48459  53.0576 292.9360 0001617 104.4528 255.6640 15.06403114226742
STARLINK-2582           
1 48460U 21040AJ  25169.60302814  .00013845  00000+0  66268-3 0  9997
2 48460  53.0557 284.5968 0004131 211.0979 148.9772 15.19239309227370
STARLINK-2683           
1 48462U 21040AL  25169.05960432  .00001081  00000+0  91468-4 0  9994
2 48462  53.0546 299.8687 0001155  82.0141 278.0979 15.06404924226609
STARLINK-2686           
1 48464U 21040AN  25169.50926243 -.00000298  00000+0 -10983-5 0  9993
2 48464  53.0545 297.5662 0001614 109.5224 250.5940 15.06404919226679
STARLINK-2681           
1 48465U 21040AP  25169.52031971  .00000702  00000+0  66027-4 0  9998
2 48465  53.0542 297.5213 0001206  88.5546 271.5581 15.06407580226681
STARLINK-2687           
1 48466U 21040AQ  25169.63826671  .00002067  00000+0  15764-3 0  9997
2 48466  53.0549 296.9891 0001146  78.9192 281.1926 15.06388643226708
STARLINK-2659           
1 48467U 21040AR  25169.06696102  .00000372  00000+0  43896-4 0  9994
2 48467  53.0573 299.5560 0001369  92.7414 267.3732 15.06393162226619
STARLINK-2685           
1 48468U 21040AS  25169.64564411 -.00004938  00000+0 -31291-3 0  9995
2 48468  53.0546 296.9573 0001288  95.4891 264.6245 15.06388766226707
STARLINK-2661           
1 48469U 21040AT  25169.06325791  .00002313  00000+0  17407-3 0  9994
2 48469  53.0556 299.5738 0001394  93.1389 266.9759 15.06409671226610
STARLINK-2675           
1 48470U 21040AU  25169.62357243 -.00000092  00000+0  12732-4 0  9995
2 48470  53.0543 297.4033 0001358  95.4904 264.6240 15.06404120226682
STARLINK-2684           
1 48471U 21040AV  25169.64933319 -.00001629  00000+0 -90501-4 0  9990
2 48471  53.0568 296.9439 0001662  88.5465 271.5715 15.06400026226693
STARLINK-2722           
1 48472U 21040AW  25169.63090058  .00001464  00000+0  11716-3 0  9999
2 48472  53.0545 297.0267 0001409  90.7293 269.3858 15.06402423226688
STARLINK-2658           
1 48473U 21040AX  25169.33604469  .00007694  00000+0  53473-3 0  9991
2 48473  53.0560 298.3491 0001382  93.0091 267.1057 15.06408379226640
STARLINK-2697           
1 48474U 21040AY  25169.63458902  .00001166  00000+0  97139-4 0  9990
2 48474  53.0555 297.0052 0001522  97.3005 262.8157 15.06406419226682
STARLINK-2619           
1 48475U 21040AZ  25169.51414979  .00038702  00000+0  12088-2 0  9998
2 48475  53.0361 274.0970 0004696 143.3384 216.7939 15.32825706227005
STARLINK-2728           
1 48478U 21040BC  25169.61247731  .00001578  00000+0  12481-3 0  9991
2 48478  53.0568 297.1084 0001558  90.0351 270.0817 15.06404038226688
STARLINK-2755           
1 48479U 21040BD  25168.67992406  .00005475  00000+0  38600-3 0  9994
2 48479  53.0552 301.2942 0001472  94.4946 265.6211 15.06414414226547
STARLINK-2706           
1 48481U 21040BF  25169.39779967  .00001570  00000+0  12431-3 0  9998
2 48481  53.0528 308.3482 0001513  94.4860 265.6302 15.06398279226508
STARLINK-2525           
1 48482U 21040BG  25169.36458874  .00001283  00000+0  10499-3 0  9990
2 48482  53.0562 308.2212 0001317  88.9975 271.1164 15.06395970226507
STARLINK-2531           
1 48483U 21040BH  25169.09550870  .00002382  00000+0  17870-3 0  9991
2 48483  53.0548 309.4280 0001290  90.2407 269.8730 15.06404294226464
STARLINK-2696           
1 48484U 21040BJ  25169.50591555  .00065018  00000+0  11619-2 0  9992
2 48484  53.0450 262.2083 0001602 346.5384  13.5581 15.49439860227173
STARLINK-2500           
1 48485U 21040BK  25169.10287660  .00002408  00000+0  18036-3 0  9993
2 48485  53.0552 309.3961 0001385  77.2070 282.9074 15.06423351226464
STARLINK-2494           
1 48487U 21040BM  25169.37564682  .00001182  00000+0  98191-4 0  9995
2 48487  53.0562 308.1705 0001480  96.2834 263.8324 15.06405931226511
STARLINK-2063           
1 48553U 21041A   25169.48530486 -.00001615  00000+0 -89580-4 0  9992
2 48553  53.0529 237.6767 0001410  91.8717 268.2434 15.06392943225389
STARLINK-2139           
1 48554U 21041B   25169.38951249  .00001028  00000+0  87880-4 0  9993
2 48554  53.0527 238.4137 0001169  88.1531 271.9592 15.06399682225363
STARLINK-2145           
1 48555U 21041C   25169.52125200 -.00000504  00000+0 -14931-4 0  9997
2 48555  53.0553 247.5160 0001311 101.5832 258.5304 15.06386728225249
STARLINK-2151           
1 48556U 21041D   25169.51018347 -.00002117  00000+0 -12327-3 0  9998
2 48556  53.0504 247.5626 0001056  76.3877 283.7230 15.06395123225244
STARLINK-2155           
1 48557U 21041E   25169.44845340  .00000721  00000+0  67291-4 0  9990
2 48557  53.0540 237.8464 0001203  91.9188 268.1939 15.06396583225377
STARLINK-2166           
1 48558U 21041F   25169.51110454  .00000248  00000+0  35516-4 0  9999
2 48558  53.0535 237.5622 0001203  91.5551 268.5576 15.06398156224520
STARLINK-2187           
1 48562U 21041K   25169.48899015 -.00001707  00000+0 -95770-4 0  9998
2 48562  53.0535 237.6591 0001202  87.8442 272.2684 15.06393862225383
STARLINK-2188           
1 48563U 21041L   25169.50743225 -.00000968  00000+0 -46163-4 0  9993
2 48563  53.0544 237.5786 0000998 102.1648 257.9453 15.06384468225385
STARLINK-2190           
1 48564U 21041M   25169.50005049 -.00000014  00000+0  17971-4 0  9995
2 48564  53.0543 237.6125 0001228  92.0709 268.0421 15.06390226225382
STARLINK-2191           
1 48565U 21041N   25169.58335648  .00131862  00000+0  66210-3 0  9999
2 48565  53.0362 162.1693 0009354  27.1361   8.7382 15.80791263  5935
STARLINK-2214           
1 48566U 21041P   25169.45120472 -.00001427  00000+0 -76900-4 0  9996
2 48566  53.0557 247.8037 0001521  98.6614 261.4547 15.06393861225235
STARLINK-2217           
1 48568U 21041R   25169.47792231  .00001203  00000+0  99707-4 0  9998
2 48568  53.0524 237.7100 0001308  91.7011 268.4128 15.06382046225378
STARLINK-2219           
1 48569U 21041S   25169.50373189  .00000186  00000+0  31372-4 0  9993
2 48569  53.0544 237.5954 0001349  91.3826 268.7318 15.06396377225388
STARLINK-2220           
1 48570U 21041T   25169.49176718  .00000659  00000+0  63141-4 0  9996
2 48570  53.0518 247.6485 0001372  91.6319 268.4827 15.06398549225237
STARLINK-2221           
1 48571U 21041U   25169.49914196  .00008076  00000+0  56037-3 0  9993
2 48571  53.0519 247.6180 0001489  80.0564 280.0593 15.06402741225245
STARLINK-2222           
1 48572U 21041V   25169.49543811  .00000352  00000+0  42528-4 0  9996
2 48572  53.0518 247.6299 0001383  95.2765 264.8382 15.06402184225247
STARLINK-2224           
1 48573U 21041W   25169.47424525 -.00001053  00000+0 -51784-4 0  9990
2 48573  53.0550 237.7255 0001321 101.7807 258.3330 15.06394416225371
STARLINK-2225           
1 48574U 21041X   25169.37751824 -.00001510  00000+0 -82533-4 0  9999
2 48574  53.0535 208.2510 0001002  77.8010 282.3091 15.06390099225786
STARLINK-2227           
1 48575U 21041Y   25169.45954906 -.00000838  00000+0 -37362-4 0  9997
2 48575  53.0536 198.1133 0001212  91.5676 268.5452 15.06391092225949
STARLINK-2228           
1 48576U 21041Z   25169.39361082 -.00001690  00000+0 -94571-4 0  9990
2 48576  53.0542 213.0910 0001195  81.5859 278.5265 15.06406573225729
STARLINK-2231           
1 48577U 21041AA  25169.49270662 -.00000246  00000+0  24050-5 0  9996
2 48577  53.0527 237.9125 0001369  99.2437 260.8707 15.06397458225374
STARLINK-2232           
1 48578U 21041AB  25169.49642943 -.00001134  00000+0 -57245-4 0  9991
2 48578  53.0537 238.1393 0001307  95.9511 264.1627 15.06385131225377
STARLINK-2234           
1 48580U 21041AD  25169.42310324  .00000498  00000+0  52332-4 0  9994
2 48580  53.0539 212.9657 0001028  86.4983 273.6123 15.06394292225726
STARLINK-2235           
1 48581U 21041AE  25169.38347979 -.00001158  00000+0 -58873-4 0  9998
2 48581  53.0525 203.1445 0001074  86.7926 273.3186 15.06385831225860
STARLINK-2236           
1 48582U 21041AF  25169.36507790  .00000999  00000+0  85914-4 0  9992
2 48582  53.0533 203.3818 0000871  75.3092 284.7993 15.06396753225854
STARLINK-2237           
1 48583U 21041AG  25169.50281571 -.00000872  00000+0 -39687-4 0  9993
2 48583  53.0530 247.5983 0001299 101.2792 258.8343 15.06397726225241
STARLINK-2238           
1 48584U 21041AH  25169.47701342  .00000595  00000+0  58839-4 0  9993
2 48584  53.0532 247.7140 0001447  89.8515 270.2640 15.06403267225235
STARLINK-2241           
1 48586U 21041AK  25169.48069154  .00004508  00000+0  32141-3 0  9999
2 48586  53.0530 247.6982 0001377  86.2321 273.8826 15.06391187225238
STARLINK-2245           
1 48589U 21041AN  25169.45951736  .00002412  00000+0  18072-3 0  9994
2 48589  53.0538 237.7939 0001394  95.0871 265.0277 15.06402330225379
STARLINK-2249           
1 48592U 21041AR  25169.47336104 -.00005487  00000+0 -34962-3 0  9999
2 48592  53.0542 247.9656 0001147 101.5275 258.5843 15.06415873225231
STARLINK-2250           
1 48593U 21041AS  25169.45859277 -.00000342  00000+0 -40928-5 0  9995
2 48593  53.0549 247.7997 0001447  92.3838 267.7317 15.06391681225531
STARLINK-2251           
1 48594U 21041AT  25169.42080982 -.00001056  00000+0 -51985-4 0  9999
2 48594  53.0535 218.0535 0001409  89.7477 270.3673 15.06401055225658
STARLINK-2252           
1 48595U 21041AU  25169.50650264 -.00000137  00000+0  97251-5 0  9990
2 48595  53.0546 247.5811 0001242  95.9576 264.1554 15.06394528226510
STARLINK-2253           
1 48596U 21041AV  25169.46226312 -.00002369  00000+0 -14019-3 0  9998
2 48596  53.0539 247.7825 0001324  94.3150 265.7990 15.06395257225691
STARLINK-2255           
1 48597U 21041AW  25169.46963875 -.00000567  00000+0 -19172-4 0  9995
2 48597  53.0533 247.7496 0001338 106.8370 253.2766 15.06400364226508
